[{"OBJECT_NAME":"TIME FLIES","OBJECT_ID":"2025-135AN","EPOCH":"2026-03-09T21:41:19.799232","MEAN_MOTION":14.94183091,"ECCENTRICITY":0.00014084,"INCLINATION":97.7573,"RA_OF_ASC_NODE":184.4121,"ARG_OF_PERICENTER":214.5319,"MEAN_ANOMALY":145.581,"EPHEMERIS_TYPE":0,"CLASSIFICATION_TYPE":"U","NORAD_CAT_ID":64564,"ELEMENT_SET_NO":999,"REV_AT_EPOCH":3907,"BSTAR":0.00043258221,"MEAN_MOTION_DOT":4.577e-5,"MEAN_MOTION_DDOT":0},{"OBJECT_NAME":"COSMOS 2251 DEB","OBJECT_ID":"1993-036NN","EPOCH":"2026-03-09T07:26:11.225760","MEAN_MOTION":14.9633519,"ECCENTRICITY":0.00121484,"INCLINATION":74.0636,"RA_OF_ASC_NODE":162.8967,"ARG_OF_PERICENTER":260.3814,"MEAN_ANOMALY":99.5998,"EPHEMERIS_TYPE":0,"CLASSIFICATION_TYPE":"U","NORAD_CAT_ID":34316,"ELEMENT_SET_NO":999,"REV_AT_EPOCH":90502,"BSTAR":0.0021825431,"MEAN_MOTION_DOT":0.00024784,"MEAN_MOTION_DDOT":0}]
